{
  "links" : {
    "next" : "https://api.nasa.gov/neo/rest/v1/feed?start_date=1998-09-23&end_date=1998-09-23&detailed=true&api_key=t0TVs3DtDT2H8Oy2Zy8m2eVrNsAVKAexjcZXUckd",
    "prev" : "https://api.nasa.gov/neo/rest/v1/feed?start_date=1998-09-21&end_date=1998-09-21&detailed=true&api_key=t0TVs3DtDT2H8Oy2Zy8m2eVrNsAVKAexjcZXUckd",
    "self" : "https://api.nasa.gov/neo/rest/v1/feed?start_date=1998-09-22&end_date=1998-09-22&detailed=true&api_key=t0TVs3DtDT2H8Oy2Zy8m2eVrNsAVKAexjcZXUckd"
  },
  "element_count" : 8,
  "near_earth_objects" : {
    "1998-09-22" : [ {
      "links" : {
        "self" : "https://api.nasa.gov/neo/rest/v1/neo/3608784?api_key=t0TVs3DtDT2H8Oy2Zy8m2eVrNsAVKAexjcZXUckd"
      },
      "neo_reference_id" : "3608784",
      "name" : "(2012 SK8)",
      "nasa_jpl_url" : "http://ssd.jpl.nasa.gov/sbdb.cgi?sstr=3608784",
      "absolute_magnitude_h" : 20.5,
      "estimated_diameter" : {
        "kilometers" : {
          "estimated_diameter_min" : 0.2111324448,
          "estimated_diameter_max" : 0.4721064988
        },
        "meters" : {
          "estimated_diameter_min" : 211.1324447897,
          "estimated_diameter_max" : 472.1064988055
        },
        "miles" : {
          "estimated_diameter_min" : 0.1311915784,
          "estimated_diameter_max" : 0.2933532873
        },
        "feet" : {
          "estimated_diameter_min" : 692.6917701639,
          "estimated_diameter_max" : 1548.9058855411
        }
      },
      "is_potentially_hazardous_asteroid" : false,
      "close_approach_data" : [ {
        "close_approach_date" : "1998-09-22",
        "epoch_date_close_approach" : 906447600000,
        "relative_velocity" : {
          "kilometers_per_second" : "14.0690180942",
          "kilometers_per_hour" : "50648.4651391416",
          "miles_per_hour" : "31470.9865749294"
        },
        "miss_distance" : {
          "astronomical" : "0.150022301",
          "lunar" : "58.3586730957",
          "kilometers" : "22443016",
          "miles" : "13945444"
        },
        "orbiting_body" : "Earth"
      } ],
      "orbital_data" : {
        "orbit_id" : "29",
        "orbit_determination_date" : "2017-04-06 08:48:57",
        "orbit_uncertainty" : "1",
        "minimum_orbit_intersection" : ".128608",
        "jupiter_tisserand_invariant" : "4.789",
        "epoch_osculation" : "2458000.5",
        "eccentricity" : ".2263715496790311",
        "semi_major_axis" : "1.340533588394346",
        "inclination" : "23.47318423986274",
        "ascending_node_longitude" : "185.2810804010055",
        "orbital_period" : "566.9111216694996",
        "perihelion_distance" : "1.037074922592726",
        "perihelion_argument" : "119.2858597690133",
        "aphelion_distance" : "1.643992254195967",
        "perihelion_time" : "2457831.509057811118",
        "mean_anomaly" : "107.3126577740072",
        "mean_motion" : ".6350201755432739",
        "equinox" : "J2000"
      }
    }, {
      "links" : {
        "self" : "https://api.nasa.gov/neo/rest/v1/neo/3632236?api_key=t0TVs3DtDT2H8Oy2Zy8m2eVrNsAVKAexjcZXUckd"
      },
      "neo_reference_id" : "3632236",
      "name" : "(2013 EH89)",
      "nasa_jpl_url" : "http://ssd.jpl.nasa.gov/sbdb.cgi?sstr=3632236",
      "absolute_magnitude_h" : 20.3,
      "estimated_diameter" : {
        "kilometers" : {
          "estimated_diameter_min" : 0.2315021222,
          "estimated_diameter_max" : 0.5176544822
        },
        "meters" : {
          "estimated_diameter_min" : 231.5021222103,
          "estimated_diameter_max" : 517.6544821978
        },
        "miles" : {
          "estimated_diameter_min" : 0.1438487052,
          "estimated_diameter_max" : 0.3216554833
        },
        "feet" : {
          "estimated_diameter_min" : 759.5214226325,
          "estimated_diameter_max" : 1698.3415313737
        }
      },
      "is_potentially_hazardous_asteroid" : false,
      "close_approach_data" : [ {
        "close_approach_date" : "1998-09-22",
        "epoch_date_close_approach" : 906447600000,
        "relative_velocity" : {
          "kilometers_per_second" : "8.7559744161",
          "kilometers_per_hour" : "31521.507897812",
          "miles_per_hour" : "19586.2391712821"
        },
        "miss_distance" : {
          "astronomical" : "0.1393519898",
          "lunar" : "54.2079238892",
          "kilometers" : "20846762",
          "miles" : "12953577"
        },
        "orbiting_body" : "Earth"
      } ],
      "orbital_data" : {
        "orbit_id" : "18",
        "orbit_determination_date" : "2017-04-06 08:46:28",
        "orbit_uncertainty" : "4",
        "minimum_orbit_intersection" : ".0865086",
        "jupiter_tisserand_invariant" : "4.780",
        "epoch_osculation" : "2458000.5",
        "eccentricity" : ".4041684002402237",
        "semi_major_axis" : "1.349682471225216",
        "inclination" : "7.09789180365349",
        "ascending_node_longitude" : "260.4937826240486",
        "orbital_period" : "572.7246008960827",
        "perihelion_distance" : ".804183465997849",
        "perihelion_argument" : "159.9561442307084",
        "aphelion_distance" : "1.895181476452584",
        "perihelion_time" : "2457995.189050234769",
        "mean_anomaly" : "3.338326854638035",
        "mean_motion" : ".6285743609349859",
        "equinox" : "J2000"
      }
    }, {
      "links" : {
        "self" : "https://api.nasa.gov/neo/rest/v1/neo/3653683?api_key=t0TVs3DtDT2H8Oy2Zy8m2eVrNsAVKAexjcZXUckd"
      },
      "neo_reference_id" : "3653683",
      "name" : "(2013 VC13)",
      "nasa_jpl_url" : "http://ssd.jpl.nasa.gov/sbdb.cgi?sstr=3653683",
      "absolute_magnitude_h" : 19.1,
      "estimated_diameter" : {
        "kilometers" : {
          "estimated_diameter_min" : 0.4023045798,
          "estimated_diameter_max" : 0.8995803882
        },
        "meters" : {
          "estimated_diameter_min" : 402.3045798343,
          "estimated_diameter_max" : 899.5803881691
        },
        "miles" : {
          "estimated_diameter_min" : 0.2499803991,
          "estimated_diameter_max" : 0.5589731654
        },
        "feet" : {
          "estimated_diameter_min" : 1319.8969577037,
          "estimated_diameter_max" : 2951.3793207207
        }
      },
      "is_potentially_hazardous_asteroid" : false,
      "close_approach_data" : [ {
        "close_approach_date" : "1998-09-22",
        "epoch_date_close_approach" : 906447600000,
        "relative_velocity" : {
          "kilometers_per_second" : "21.6986263335",
          "kilometers_per_hour" : "78115.0548007616",
          "miles_per_hour" : "48537.6572455066"
        },
        "miss_distance" : {
          "astronomical" : "0.1300513883",
          "lunar" : "50.5899887085",
          "kilometers" : "19455412",
          "miles" : "12089032"
        },
        "orbiting_body" : "Earth"
      } ],
      "orbital_data" : {
        "orbit_id" : "38",
        "orbit_determination_date" : "2017-03-04 06:17:16",
        "orbit_uncertainty" : "0",
        "minimum_orbit_intersection" : ".0579819",
        "jupiter_tisserand_invariant" : "4.284",
        "epoch_osculation" : "2457800.5",
        "eccentricity" : ".5879997755078575",
        "semi_major_axis" : "1.523442961193881",
        "inclination" : "7.195137502594071",
        "ascending_node_longitude" : "200.0600617244527",
        "orbital_period" : "686.811763026925",
        "perihelion_distance" : ".6276588420128532",
        "perihelion_argument" : "61.27672976034135",
        "aphelion_distance" : "2.419227080374908",
        "perihelion_time" : "2457891.708346953432",
        "mean_anomaly" : "312.1921337536145",
        "mean_motion" : ".5241610866031235",
        "equinox" : "J2000"
      }
    } ]
  }
}